{
  "type": "FeatureCollection",
  "features": [
    {
      "type": "Feature",
      "properties": {
        "norad_id": 64751,
        "name": "PROGRESS-MS 31",
        "group": "stations",
        "lat": -12.934601646322099,
        "lon": -94.2558068210448,
        "alt_km": 420.08367326201005,
        "timestamp": "2025-12-26T07:29:17.227939+00:00",
        "meta_object_name": "PROGRESS-MS 31",
        "meta_object_id": "2025-146A",
        "meta_epoch": "2025-12-25T21:21:30.152448",
        "meta_mean_motion": 15.49823805,
        "meta_eccentricity": 0.00032345,
        "meta_inclination": 51.6319,
        "meta_ra_of_asc_node": 77.3524,
        "meta_arg_of_pericenter": 301.523,
        "meta_mean_anomaly": 58.5443,
        "meta_ephemeris_type": 0,
        "meta_classification_type": "U",
        "meta_norad_cat_id": 64751,
        "meta_element_set_no": 999,
        "meta_rev_at_epoch": 675,
        "meta_bstar": 0.00025321218,
        "meta_mean_motion_dot": 0.00013933,
        "meta_mean_motion_ddot": 0,
        "tle_line1": "1 64751U 25146A   25359.88993232  .00013933  00000+0  25321-3 0  9993",
        "tle_line2": "2 64751  51.6319  77.3524 0003234 301.5230  58.5443 15.49823805  6756"
      },
      "geometry": {
        "type": "Point",
        "coordinates": [
          -94.2558068210448,
          -12.934601646322099
        ]
      }
    },
    {
      "type": "Feature",
      "properties": {
        "norad_id": 64786,
        "name": "TIANZHOU-9",
        "group": "stations",
        "lat": 36.666236558314075,
        "lon": 56.816402662261325,
        "alt_km": 377.7591918846301,
        "timestamp": "2025-12-26T07:29:17.227954+00:00",
        "meta_object_name": "TIANZHOU-9",
        "meta_object_id": "2025-149A",
        "meta_epoch": "2025-12-25T20:14:16.934784",
        "meta_mean_motion": 15.59690263,
        "meta_eccentricity": 0.00084341,
        "meta_inclination": 41.4681,
        "meta_ra_of_asc_node": 297.125,
        "meta_arg_of_pericenter": 146.1754,
        "meta_mean_anomaly": 213.9624,
        "meta_ephemeris_type": 0,
        "meta_classification_type": "U",
        "meta_norad_cat_id": 64786,
        "meta_element_set_no": 999,
        "meta_rev_at_epoch": 25530,
        "meta_bstar": 0.00020858961,
        "meta_mean_motion_dot": 0.00016869,
        "meta_mean_motion_ddot": 0,
        "tle_line1": "1 64786U 25149A   25359.84325156  .00016869  00000+0  20859-3 0  9996",
        "tle_line2": "2 64786  41.4681 297.1250 0008434 146.1754 213.9624 15.59690263255308"
      },
      "geometry": {
        "type": "Point",
        "coordinates": [
          56.816402662261325,
          36.666236558314075
        ]
      }
    },
    {
      "type": "Feature",
      "properties": {
        "norad_id": 65077,
        "name": "CREW DRAGON 11",
        "group": "stations",
        "lat": -12.934602890747676,
        "lon": -94.25580576695967,
        "alt_km": 420.0836733303104,
        "timestamp": "2025-12-26T07:29:17.227964+00:00",
        "meta_object_name": "CREW DRAGON 11",
        "meta_object_id": "2025-166A",
        "meta_epoch": "2025-12-25T21:21:30.152448",
        "meta_mean_motion": 15.49823805,
        "meta_eccentricity": 0.00032345,
        "meta_inclination": 51.6319,
        "meta_ra_of_asc_node": 77.3524,
        "meta_arg_of_pericenter": 301.523,
        "meta_mean_anomaly": 58.5443,
        "meta_ephemeris_type": 0,
        "meta_classification_type": "U",
        "meta_norad_cat_id": 65077,
        "meta_element_set_no": 999,
        "meta_rev_at_epoch": 214,
        "meta_bstar": 0.00025321218,
        "meta_mean_motion_dot": 0.00013933,
        "meta_mean_motion_ddot": 0,
        "tle_line1": "1 65077U 25166A   25359.88993232  .00013933  00000+0  25321-3 0  9997",
        "tle_line2": "2 65077  51.6319  77.3524 0003234 301.5230  58.5443 15.49823805  2147"
      },
      "geometry": {
        "type": "Point",
        "coordinates": [
          -94.25580576695967,
          -12.934602890747676
        ]
      }
    },
    {
      "type": "Feature",
      "properties": {
        "norad_id": 65304,
        "name": "DRAGON CRS-33",
        "group": "stations",
        "lat": -12.934603388517264,
        "lon": -94.25580534532617,
        "alt_km": 420.0836733576298,
        "timestamp": "2025-12-26T07:29:17.227974+00:00",
        "meta_object_name": "DRAGON CRS-33",
        "meta_object_id": "2025-186A",
        "meta_epoch": "2025-12-25T21:21:30.152448",
        "meta_mean_motion": 15.49823805,
        "meta_eccentricity": 0.00032345,
        "meta_inclination": 51.6319,
        "meta_ra_of_asc_node": 77.3524,
        "meta_arg_of_pericenter": 301.523,
        "meta_mean_anomaly": 58.5443,
        "meta_ephemeris_type": 0,
        "meta_classification_type": "U",
        "meta_norad_cat_id": 65304,
        "meta_element_set_no": 999,
        "meta_rev_at_epoch": 11,
        "meta_bstar": 0.00025321218,
        "meta_mean_motion_dot": 0.00013933,
        "meta_mean_motion_ddot": 0,
        "tle_line1": "1 65304U 25186A   25359.88993232  .00013933  00000+0  25321-3 0  9992",
        "tle_line2": "2 65304  51.6319  77.3524 0003234 301.5230  58.5443 15.49823805   115"
      },
      "geometry": {
        "type": "Point",
        "coordinates": [
          -94.25580534532617,
          -12.934603388517264
        ]
      }
    },
    {
      "type": "Feature",
      "properties": {
        "norad_id": 65586,
        "name": "PROGRESS-MS 32",
        "group": "stations",
        "lat": -12.934603886287455,
        "lon": -94.25580492369215,
        "alt_km": 420.0836733849501,
        "timestamp": "2025-12-26T07:29:17.227984+00:00",
        "meta_object_name": "PROGRESS-MS 32",
        "meta_object_id": "2025-204A",
        "meta_epoch": "2025-12-25T21:21:30.152448",
        "meta_mean_motion": 15.49823805,
        "meta_eccentricity": 0.00032345,
        "meta_inclination": 51.6319,
        "meta_ra_of_asc_node": 77.3524,
        "meta_arg_of_pericenter": 301.523,
        "meta_mean_anomaly": 58.5443,
        "meta_ephemeris_type": 0,
        "meta_classification_type": "U",
        "meta_norad_cat_id": 65586,
        "meta_element_set_no": 999,
        "meta_rev_at_epoch": 27,
        "meta_bstar": 0.00025321218,
        "meta_mean_motion_dot": 0.00013933,
        "meta_mean_motion_ddot": 0,
        "tle_line1": "1 65586U 25204A   25359.88993232  .00013933  00000+0  25321-3 0  9995",
        "tle_line2": "2 65586  51.6319  77.3524 0003234 301.5230  58.5443 15.49823805   274"
      },
      "geometry": {
        "type": "Point",
        "coordinates": [
          -94.25580492369215,
          -12.934603886287455
        ]
      }
    },
    {
      "type": "Feature",
      "properties": {
        "norad_id": 65616,
        "name": "CYGNUS NG-23",
        "group": "stations",
        "lat": -12.934604384057684,
        "lon": -94.2558045020581,
        "alt_km": 420.0836734122722,
        "timestamp": "2025-12-26T07:29:17.227994+00:00",
        "meta_object_name": "CYGNUS NG-23",
        "meta_object_id": "2025-208A",
        "meta_epoch": "2025-12-25T21:21:30.152448",
        "meta_mean_motion": 15.49823805,
        "meta_eccentricity": 0.00032345,
        "meta_inclination": 51.6319,
        "meta_ra_of_asc_node": 77.3524,
        "meta_arg_of_pericenter": 301.523,
        "meta_mean_anomaly": 58.5443,
        "meta_ephemeris_type": 0,
        "meta_classification_type": "U",
        "meta_norad_cat_id": 65616,
        "meta_element_set_no": 999,
        "meta_rev_at_epoch": 22,
        "meta_bstar": 0.00025321218,
        "meta_mean_motion_dot": 0.00013933,
        "meta_mean_motion_ddot": 0,
        "tle_line1": "1 65616U 25208A   25359.88993232  .00013933  00000+0  25321-3 0  9993",
        "tle_line2": "2 65616  51.6319  77.3524 0003234 301.5230  58.5443 15.49823805   223"
      },
      "geometry": {
        "type": "Point",
        "coordinates": [
          -94.2558045020581,
          -12.934604384057684
        ]
      }
    },
    {
      "type": "Feature",
      "properties": {
        "norad_id": 65729,
        "name": "DRAGONFLY",
        "group": "stations",
        "lat": -45.04505188719587,
        "lon": 13.490076454814416,
        "alt_km": 341.4095106230343,
        "timestamp": "2025-12-26T07:29:17.228004+00:00",
        "meta_object_name": "DRAGONFLY",
        "meta_object_id": "1998-067XH",
        "meta_epoch": "2025-12-25T10:27:45.650592",
        "meta_mean_motion": 15.76365427,
        "meta_eccentricity": 0.0008108,
        "meta_inclination": 51.6246,
        "meta_ra_of_asc_node": 70.5435,
        "meta_arg_of_pericenter": 352.3473,
        "meta_mean_anomaly": 7.7402,
        "meta_ephemeris_type": 0,
        "meta_classification_type": "U",
        "meta_norad_cat_id": 65729,
        "meta_element_set_no": 999,
        "meta_rev_at_epoch": 1516,
        "meta_bstar": 0.0012462,
        "meta_mean_motion_dot": 0.00205682,
        "meta_mean_motion_ddot": 0,
        "tle_line1": "1 65729U 98067XH  25359.43594503  .00205682  00000+0  12462-2 0  9995",
        "tle_line2": "2 65729  51.6246  70.5435 0008108 352.3473   7.7402 15.76365427 15162"
      },
      "geometry": {
        "type": "Point",
        "coordinates": [
          13.490076454814416,
          -45.04505188719587
        ]
      }
    }
  ]
}